OBJECT_NAME,OBJECT_ID,EPOCH,MEAN_MOTION,ECCENTRICITY,INCLINATION,RA_OF_ASC_NODE,ARG_OF_PERICENTER,MEAN_ANOMALY,EPHEMERIS_TYPE,CLASSIFICATION_TYPE,NORAD_CAT_ID,ELEMENT_SET_NO,REV_AT_EPOCH,BSTAR,MEAN_MOTION_DOT,MEAN_MOTION_DDOT
GUOWANG TEST OBJECT C,2026-120C,2026-06-04T11:20:38.584320,15.39427828,.0009732,54.9977,84.9896,304.1612,55.8493,0,U,69322,999,73,.51568E-3,.20158E-3,0
GUOWANG TEST OBJECT D,2026-120D,2026-06-04T15:59:40.712352,15.39704502,.0008003,55.0029,84.1123,301.7889,58.2360,0,U,69323,999,76,.808E-3,.32137E-3,0
QIANFAN-163,2026-121A,2026-06-03T23:37:32.543616,13.60350498,.0018824,89.0161,301.8508,226.7301,133.2285,0,U,69325,999,36,.676822E-5,.17E-6,0
QIANFAN-164,2026-121B,2026-06-03T23:37:07.301856,13.60503556,.00181939,89.0158,301.8507,228.0170,131.9437,0,U,69326,999,36,.14663628E-3,.122E-5,0
SZ-22 MODULE,2025-272C,2026-06-04T21:12:49.489632,15.59716852,.0008357,41.4809,36.8770,349.8507,10.2162,0,U,69328,999,140,.2824E-3,.22999E-3,0
